KUIPER-00079            
1 64826U 25151L   25270.58339120  .00031774  00000+0  37291-2 0  9992
2 64826  51.8988 301.5926 0012571  60.8700 298.1618 14.84613935  5363
KUIPER-00080            
1 64827U 25151M   25270.58339120  .00017671  00000+0  22810-2 0  9994
2 64827  51.8989 301.8351 0004668  82.4708 321.9875 14.81020399  1309
KUIPER-00082            
1 64828U 25151N   25270.58339120 -.01322353  00000+0 -61765-1 0  9995
2 64828  51.8848 294.6201 0006687  56.2249 260.4924 15.22466056  4944
KUIPER-00083            
1 64829U 25151P   25270.58339120 -.00979479  00000+0 -82404-1 0  9995
2 64829  51.8966 297.9619 0010538  56.4325 324.7901 15.00517088  4679
KUIPER-00084            
1 64830U 25151Q   25269.51465107  .00004839  00000+0  66410-3 0  9991
2 64830  51.8999 311.4746 0011614  39.9395 320.2420 14.79860769 10923
KUIPER-00085            
1 64831U 25151R   25270.58339120 -.01738008  00000+0 -85897-1 0  9999
2 64831  51.8885 294.7022 0009866  49.1786 176.2123 15.20894569  5555
KUIPER-00086            
1 64832U 25151S   25270.58339120  .00024406  00000+0  24306-2 0  9996
2 64832  51.8944 299.7749 0010232  59.8534 129.6143 14.91437572  5885
KUIPER-00087            
1 64833U 25151T   25270.45185576  .00065527  00000+0  17631-2 0  9999
2 64833  51.8780 294.3888 0008455  46.7910 313.3782 15.37226195 11231
